[{"OBJECT_NAME":"FLOCK 4BE-27","OBJECT_ID":"2024-149AX","EPOCH":"2026-03-09T18:04:53.053248","MEAN_MOTION":15.32593322,"ECCENTRICITY":0.00027324,"INCLINATION":97.3862,"RA_OF_ASC_NODE":150.6783,"ARG_OF_PERICENTER":305.898,"MEAN_ANOMALY":54.2008,"EPHEMERIS_TYPE":0,"CLASSIFICATION_TYPE":"U","NORAD_CAT_ID":60513,"ELEMENT_SET_NO":999,"REV_AT_EPOCH":8690,"BSTAR":0.00036576028,"MEAN_MOTION_DOT":0.00011439,"MEAN_MOTION_DDOT":0},{"OBJECT_NAME":"CZ-6A DEB","OBJECT_ID":"2024-140ZM","EPOCH":"2026-03-09T08:08:19.885920","MEAN_MOTION":14.97554426,"ECCENTRICITY":0.01813088,"INCLINATION":90.2734,"RA_OF_ASC_NODE":12.4689,"ARG_OF_PERICENTER":116.477,"MEAN_ANOMALY":245.5188,"EPHEMERIS_TYPE":0,"CLASSIFICATION_TYPE":"U","NORAD_CAT_ID":61455,"ELEMENT_SET_NO":999,"REV_AT_EPOCH":8308,"BSTAR":0.00078895456,"MEAN_MOTION_DOT":0.00012969,"MEAN_MOTION_DDOT":0}]
